STARLINK-33814          
1 63582U 25076P   26041.22896668  .00028886  00000+0  10546-2 0  9993
2 63582  42.9983 116.5164 0000937 231.4916 128.5852 15.27596858 47637
STARLINK-33817          
1 63583U 25076Q   26041.22253623  .00027600  00000+0  10081-2 0  9999
2 63583  42.9968 116.4643 0000917 212.4050 147.6746 15.27599744 47628
STARLINK-33820          
1 63584U 25076R   26041.21482865  .00029301  00000+0  10694-2 0  9991
2 63584  43.0005 116.4081 0001388 258.4189 101.6506 15.27600848 47638
STARLINK-33813          
1 63585U 25076S   26041.21611593  .00024383  00000+0  89220-3 0  9991
2 63585  42.9975 116.4171 0002078 151.5845 208.5120 15.27595471 47636
STARLINK-33834          
1 63586U 25076T   26041.51234905  .00024352  00000+0  89069-3 0  9990
2 63586  43.0075 115.2118 0003008 280.3233  79.7279 15.27609686 47675
STARLINK-33830          
1 63587U 25076U   26041.24823698  .00020965  00000+0  76879-3 0  9995
2 63587  43.0013 116.6664 0002685 284.7905  75.2649 15.27595573 47630
STARLINK-33651          
1 63588U 25076V   26041.24952653  .00029227  00000+0  10665-2 0  9990
2 63588  43.0008 116.6752 0001775 276.8686  83.1964 15.27606360 47635
STARLINK-33788          
1 63589U 25076W   26041.52777402  .00018389  00000+0  67564-3 0  9997
2 63589  43.0033 115.3244 0002131 285.8752  74.1864 15.27602148 47670
STARLINK-33805          
1 63590U 25076X   26041.21111697  .00033608  00000+0  12241-2 0  9995
2 63590  43.0001 117.2338 0001572 262.6629  97.4044 15.27611738 47624
STARLINK-33702          
1 63591U 25076Y   26041.23024807  .00033788  00000+0  12307-2 0  9996
2 63591  43.0002 116.5216 0001722 282.5812  77.4847 15.27606627 47636
STARLINK-33666          
1 63592U 25076Z   26041.19570403  .00034454  00000+0  12550-2 0  9991
2 63592  42.9987 117.1239 0001009 237.1644 122.9111 15.27599558 47629
STARLINK-33723          
1 63593U 25076AA  26041.23666857  .00025200  00000+0  92156-3 0  9996
2 63593  42.9989 116.5703 0000728 241.8520 118.2258 15.27601252 47639
STARLINK-33791          
1 63594U 25076AB  26041.52520562  .00021112  00000+0  77496-3 0  9999
2 63594  42.9974 115.2927 0000925 227.4600 132.6174 15.27561293 47677
STARLINK-33831          
1 63595U 25076AC  26041.24053390  .00033842  00000+0  12324-2 0  9990
2 63595  42.9998 116.5416 0002736 293.6052  66.4512 15.27612978 47632
SHIYAN-27 A             
1 63599U 25078A   26041.96915640  .00000006  00000+0  70581-4 0  9997
2 63599  99.6938  51.0805 0000648  83.9465 276.1747 13.57236459 40418
SHIYAN-27 B             
1 63600U 25078B   26041.93222625  .00000040  00000+0  11800-3 0  9997
2 63600  99.6952  51.0014 0000718  85.4071 274.7150 13.57238094 40405
SHIYAN-27 C             
1 63601U 25078C   26041.95669287  .00000027  00000+0  99470-4 0  9994
2 63601  99.6946  51.1252 0000706  85.6484 274.4735 13.57238662 40419
SHIYAN-27 D             
1 63602U 25078D   26041.94465873  .00000040  00000+0  11840-3 0  9998
2 63602  99.6968  51.0328 0000685  86.2858 273.8359 13.57235864 40400
SHIYAN-27 E             
1 63603U 25078E   26041.99364800  .00000050  00000+0  13251-3 0  9991
2 63603  99.6934  51.0328 0000689  89.2938 270.8279 13.57238432 40413
SHIYAN-27 F             
1 63604U 25078F   26041.90760774  .00000012  00000+0  78919-4 0  9994
2 63604  99.6941  51.0016 0000732  86.1111 274.0111 13.57236986 40406
KORSAT-3                
1 63630U 25081A   26041.91002921  .00003983  00000+0  33888-3 0  9996
2 63630  45.4112 270.6780 0011373 253.2583 106.7048 14.99370935 44239
TOMORROW-S7             
1 63631U 25081B   26041.92735169  .00001833  00000+0  16737-3 0  9991
2 63631  45.3922 271.2124 0002303 300.4513  59.6138 14.99061255 44225
STARLINK-33879          
1 63634U 25083A   26041.36335195  .00038379  00000+0  13957-2 0  9994
2 63634  42.9991 159.8816 0002159 148.1788 211.9194 15.27608625 45884
STARLINK-33854          
1 63635U 25083B   26041.38633867  .00012370  00000+0  45833-3 0  9996
2 63635  42.9975 159.1931 0001332 195.5012 164.5799 15.27574735 45895
STARLINK-33864          
1 63636U 25083C   26041.62875484  .00032126  00000+0  11712-2 0  9996
2 63636  43.0023 158.4387 0001896 277.0987  82.9649 15.27597034 45952
STARLINK-33832          
1 63637U 25083D   26041.77096759  .00023133  00000+0  84813-3 0  9994
2 63637  43.0005 156.9214 0001079 249.3008 110.7728 15.27556229 45953
STARLINK-33856          
1 63638U 25083E   26041.91667824  .00004515  00000+0  17353-3 0  9996
2 63638  43.0009 156.2271 0001256 273.0951 112.7516 15.27570097  5864
STARLINK-33876          
1 63639U 25083F   26040.35814232  .00037295  00000+0  13567-2 0  9994
2 63639  42.9979 165.2245 0000947 254.5037 105.5710 15.27609574 45734
STARLINK-33859          
1 63640U 25083G   26041.36591491  .00027921  00000+0  10200-2 0  9993
2 63640  42.9957 159.8968 0006557 138.1126 222.0228 15.27574181 45882
STARLINK-33826          
1 63641U 25083H   26041.39147845  .00025415  00000+0  92929-3 0  9992
2 63641  42.9953 159.2268 0001646 262.6021  97.4644 15.27601056 45896
STARLINK-33836          
1 63642U 25083J   26041.61847517  .00030415  00000+0  11094-2 0  9990
2 63642  43.0002 158.3572 0001758 280.5200  79.5454 15.27604564 45925
STARLINK-33558          
1 63643U 25083K   26041.64402626  .00021731  00000+0  79620-3 0  9993
2 63643  43.0034 157.6913 0001077 245.1338 114.9402 15.27608031 45936
STARLINK-33852          
1 63644U 25083L   26041.81335223  .00020982  00000+0  76937-3 0  9996
2 63644  42.9968 157.2349 0000536 234.3019 125.7783 15.27599354 45989
STARLINK-33835          
1 63645U 25083M   26041.34279778  .00023512  00000+0  86115-3 0  9998
2 63645  42.9993 159.7167 0002509 285.3395  74.7179 15.27580121 45915
STARLINK-33661          
1 63646U 25083N   26041.32864429  .00021991  00000+0  80525-3 0  9998
2 63646  42.9997 159.6090 0002728 281.4026  78.6519 15.27620272 45918
STARLINK-33729          
1 63647U 25083P   26041.36207080  .00027327  00000+0  99829-3 0  9993
2 63647  42.9933 159.8693 0000953 141.2653 218.8268 15.27599608 45880
STARLINK-33717          
1 63648U 25083Q   26041.31966463  .00036762  00000+0  13375-2 0  9990
2 63648  43.0030 159.5546 0001558 284.3338  75.7341 15.27610955 45887
STARLINK-33684          
1 63649U 25083R   26041.63888613  .00026943  00000+0  98544-3 0  9998
2 63649  43.0014 157.6465 0001790 237.3573 122.7106 15.27565870 45939
STARLINK-33704          
1 63650U 25083S   26041.33380240  .00029520  00000+0  10775-2 0  9993
2 63650  42.9989 159.6522 0001593 265.5056  94.5613 15.27594155 45887
STARLINK-33705          
1 63651U 25083T   26040.80685182  .00034507  00000+0  12563-2 0  9996
2 63651  42.9996 162.5727 0001274 295.7292  64.3428 15.27614019 45835
STARLINK-33663          
1 63652U 25083U   26040.79913688  .00028259  00000+0  10316-2 0  9991
2 63652  43.0024 162.5211 0003240 296.9535  63.0985 15.27603957 45806
STARLINK-33866          
1 63653U 25083V   26041.61462530  .00017240  00000+0  63438-3 0  9991
2 63653  42.9932 158.3184 0000691 110.2406 249.8520 15.27588950 45957
STARLINK-33849          
1 63654U 25083W   26040.63125160  .00038658  00000+0  14055-2 0  9994
2 63654  42.9956 163.8342 0001089 226.0987 133.9774 15.27614459 45771
STARLINK-33873          
1 63655U 25083X   26041.80949119  .00035184  00000+0  12811-2 0  9992
2 63655  42.9990 157.2010 0001268 263.1518  96.9189 15.27602588 45981
STARLINK-33772          
1 63656U 25083Y   26041.33508640  .00022568  00000+0  82687-3 0  9992
2 63656  42.9946 159.6568 0000946 162.7029 197.3855 15.27589472 45915
STARLINK-33789          
1 63657U 25083Z   26041.78507723  .00022162  00000+0  81175-3 0  9994
2 63657  43.0000 157.0179 0001363 273.9002  86.1693 15.27608216 45989
STARLINK-33822          
1 63658U 25083AA  26041.34922566  .00040294  00000+0  14661-2 0  9994
2 63658  43.0033 159.7695 0003424 300.0315  60.0196 15.27570769 45910
STARLINK-33771          
1 63659U 25083AB  26041.71921904  .00022293  00000+0  81698-3 0  9995
2 63659  43.0015 160.9239 0001571 262.0217  98.0456 15.27588771 45932
STARLINK-33810          
1 63660U 25083AC  26041.64530545  .00021681  00000+0  79413-3 0  9998
2 63660  43.0075 157.6960 0004421 294.9654  65.0738 15.27613533 45965
STARLINK-33823          
1 63661U 25083AD  26041.34535642  .00022440  00000+0  82134-3 0  9997
2 63661  42.9916 159.7344 0001806 139.1629 220.9358 15.27626074 45912
TIANLIAN 2-05           
1 63662U 25084A   26041.83761583  .00000136  00000+0  00000+0 0  9994
2 63662   4.7711 281.2020 0002765  69.7313 111.8486  1.00269992  3111
STARLINK-11651 [DTC]    
1 63664U 25085A   26041.46243325  .00105397  00000+0  81305-3 0  9991
2 63664  42.9988  82.1842 0001204 286.8069  73.2667 15.70882741 45977
STARLINK-11672 [DTC]    
1 63665U 25085B   26041.45712047  .00046165  00000+0  36025-3 0  9999
2 63665  43.0002  82.1392 0001299 264.5580  95.5139 15.70907488 46576
STARLINK-11664 [DTC]    
1 63666U 25085C   26041.38927186  .00187718  00000+0  14315-2 0  9991
2 63666  43.0000  83.3822 0001605 268.5261  91.5422 15.70875597 45954
STARLINK-11666 [DTC]    
1 63667U 25085D   26040.30744280  .00199170  00000+0  15154-2 0  9992
2 63667  42.9999  89.8901 0001267 253.7607 106.3121 15.70893680 45687
STARLINK-11663 [DTC]    
1 63668U 25085E   26041.25588119  .00022968  00000+0  18187-3 0  9995
2 63668  43.0006  84.0995 0001515 286.6809  73.3892 15.70856794 45935
STARLINK-11595 [DTC]    
1 63669U 25085F   26041.25057309  .00270254  00000+0  20405-2 0  9996
2 63669  43.0005  84.0548 0002905 278.9898  81.0641 15.70855662 46577
STARLINK-11599 [DTC]    
1 63670U 25085G   26041.24526327  .00226187  00000+0  17175-2 0  9994
2 63670  42.9999  84.0111 0001267 242.1603 117.9136 15.70856935 45922
STARLINK-11603 [DTC]    
1 63671U 25085H   26040.47695693  .00224559  00000+0  17022-2 0  9994
2 63671  42.9992  88.5667 0001537 281.4960  78.5735 15.70902348 45807
